ONEWEB-0211             
1 48767U 21045A   26193.96168265 -.00000071  00000+0 -22053-3 0  9992
2 48767  87.8989 253.9418 0002608 107.2630 252.8786 13.16197446247834
ONEWEB-0223             
1 48768U 21045B   26193.67247124  .00001519  00000+0  40007-2 0  9997
2 48768  87.8987 254.1132 0002520 111.2164 248.9236 13.15540427247756
ONEWEB-0230             
1 48769U 21045C   26194.17635730 -.00000040  00000+0 -14146-3 0  9994
2 48769  87.8983 254.0257 0001885  94.7364 265.3982 13.15548264248085
ONEWEB-0237             
1 48770U 21045D   26194.16526208  .00000144  00000+0  34932-3 0  9992
2 48770  87.8983 254.0295 0002375  96.9346 263.2054 13.15548203247807
ONEWEB-0235             
1 48771U 21045E   26193.68354990  .00000102  00000+0  23770-3 0  9998
2 48771  87.8983 254.1145 0002125 139.6130 220.5159 13.15549613247732
ONEWEB-0242             
1 48772U 21045F   26193.98145955 -.00000035  00000+0 -12762-3 0  9997
2 48772  87.8996 254.0512 0001951 102.3113 257.8236 13.15548020247817
ONEWEB-0241             
1 48773U 21045G   26193.66453807 -.00000830  00000+0 -22391-2 0  9992
2 48773  87.8984 254.1294 0002355 103.4648 256.6745 13.15543741247689
ONEWEB-0243             
1 48774U 21045H   26194.15257949  .00000138  00000+0  33304-3 0  9993
2 48774  87.8984 254.0454 0001785 111.4478 248.6843 13.15550380247770
ONEWEB-0222             
1 48775U 21045J   26193.67959773  .00000048  00000+0  94351-4 0  9994
2 48775  87.8989 254.1096 0002224 105.3870 254.7506 13.15547028247753
ONEWEB-0244             
1 48776U 21045K   26193.70575203  .00000116  00000+0  27524-3 0  9994
2 48776  87.9001 254.0998 0002020 104.1286 256.0069 13.15548501248322
ONEWEB-0247             
1 48777U 21045L   26193.70258188  .00000173  00000+0  42657-3 0  9992
2 48777  87.8984 254.1294 0002029 122.6943 237.4383 13.15548626247763
ONEWEB-0245             
1 48778U 21045M   26193.69781870  .00000054  00000+0  10843-3 0  9990
2 48778  87.8986 254.1129 0002143 105.5921 254.5446 13.15549123247736
ONEWEB-0229             
1 48779U 21045N   26194.14941805  .00000152  00000+0  37099-3 0  9999
2 48779  87.8998 254.0204 0002090 106.0292 254.1069 13.15547436247823
ONEWEB-0228             
1 48780U 21045P   26193.72648158 -.00000078  00000+0 -24093-3 0  9998
2 48780  87.8998 254.0978 0002089 102.5033 257.6331 13.15549199247687
ONEWEB-0232             
1 48781U 21045Q   26194.15734423  .00000262  00000+0  66127-3 0  9995
2 48781  87.9001 254.0117 0002181  99.6807 260.4570 13.15548226248067
ONEWEB-0231             
1 48782U 21045R   26193.67881137  .00000148  00000+0  35951-3 0  9991
2 48782  87.8995 254.1188 0002206 103.3557 256.7819 13.15547632247693
ONEWEB-0234             
1 48783U 21045S   26193.71670157  .00000076  00000+0  16693-3 0  9997
2 48783  87.9000 254.0928 0002511 102.7316 257.4096 13.15547396247836
ONEWEB-0238             
1 48784U 21045T   26194.17330846  .00000058  00000+0  11951-3 0  9999
2 48784  87.9006 253.9979 0002368  95.8544 264.2856 13.15548324247799
ONEWEB-0240             
1 48785U 21045U   26193.66216924 -.00000104  00000+0 -31045-3 0  9993
2 48785  87.8996 254.1108 0002360 104.8282 255.3110 13.15548817247753
ONEWEB-0246             
1 48786U 21045V   26193.65662694 -.00000072  00000+0 -22615-3 0  9999
2 48786  87.8994 254.1156 0002025  98.9140 261.2219 13.15547883247623
ONEWEB-0210             
1 48787U 21045W   26193.70733265  .00000105  00000+0  24571-3 0  9997
2 48787  87.8995 254.1029 0001735 132.4109 227.7168 13.15548009247676
ONEWEB-0214             
1 48788U 21045X   26194.17237909 -.00000006  00000+0 -49252-4 0  9990
2 48788  87.9006 254.0052 0001717 111.7592 248.3721 13.15546597247700
ONEWEB-0221             
1 48789U 21045Y   26194.17952609  .00000095  00000+0  21836-3 0  9995
2 48789  87.8999 254.0133 0002191 103.6882 256.4493 13.15548668247796
ONEWEB-0213             
1 48790U 21045Z   26194.16843345  .00000126  00000+0  30118-3 0  9990
2 48790  87.8995 254.0192 0002048 108.1820 251.9534 13.15548592247851
ONEWEB-0212             
1 48791U 21045AA  26194.14544454  .00000113  00000+0  26707-3 0  9993
2 48791  87.8989 254.0187 0002119 101.1922 258.9447 13.15547516247848
ONEWEB-0227             
1 48792U 21045AB  26193.68832030  .00000063  00000+0  13451-3 0  9998
2 48792  87.8991 254.1094 0002114 101.5691 258.5677 13.15547682247735
ONEWEB-0226             
1 48793U 21045AC  26193.68197887  .00000163  00000+0  39817-3 0  9998
2 48793  87.8985 254.1160 0001956 107.4745 252.6599 13.15547764247707
ONEWEB-0224             
1 48794U 21045AD  26194.17794278 -.00000003  00000+0 -42286-4 0  9991
2 48794  87.8989 254.0485 0002942  99.4261 260.7202 13.15548630247692
ONEWEB-0233             
1 48795U 21045AE  26194.18255232 -.00000030  00000+0 -11494-3 0  9991
2 48795  87.8985 254.0549 0002227 105.2914 254.8462 13.15550671247710
ONEWEB-0190             
1 48796U 21045AF  26193.71367227  .00000065  00000+0  13812-3 0  9990
2 48796  87.8992 254.1124 0002174 117.2161 242.9191 13.15548656247725
ONEWEB-0236             
1 48797U 21045AG  26193.65504762 -.00000093  00000+0 -28103-3 0  9993
2 48797  87.8984 254.1319 0002156  95.2359 264.9017 13.15548119247609
ONEWEB-0248             
1 48798U 21045AH  26193.66771783 -.00000045  00000+0 -15477-3 0  9991
2 48798  87.8996 254.1153 0002404 108.5777 251.5614 13.15548836247765
ONEWEB-0225             
1 48799U 21045AJ  26194.14625251  .00000151  00000+0  36727-3 0  9991
2 48799  87.8992 254.0270 0002193 113.2136 246.9226 13.15548124247833
ONEWEB-0215             
1 48800U 21045AK  26193.65979386 -.00000106  00000+0 -31681-3 0  9996
2 48800  87.9000 254.1074 0002397 111.9675 248.1710 13.15549106247641
ONEWEB-0216             
1 48801U 21045AL  26193.66930694 -.00000038  00000+0 -13632-3 0  9997
2 48801  87.8984 254.1212 0001953  98.0014 262.1338 13.15547853247655
ONEWEB-0239             
1 48802U 21045AM  26193.67406193 -.00000067  00000+0 -21314-3 0  9999
2 48802  87.8979 254.1228 0002520 114.2785 245.8609 13.15548366247697
ONEWEB-0249             
1 48967U 21060A   26193.96783163  .00000039  00000+0  69455-4 0  9991
2 48967  87.9078 223.6571 0002168  96.4459 263.6919 13.16592294243002
ONEWEB-0250             
1 48968U 21060B   26193.96656043  .00000076  00000+0  14332-3 0  9992
2 48968  87.9080 221.3297 0003088  88.1386 272.0104 13.25835139243632
ONEWEB-0252             
1 48970U 21060D   26193.54274850  .00000117  00000+0  27121-3 0  9997
2 48970  87.9080 223.7339 0001822  96.8380 263.2958 13.16595354242991
ONEWEB-0253             
1 48971U 21060E   26193.53166744  .00000160  00000+0  38479-3 0  9995
2 48971  87.9079 223.7415 0002171  95.1739 264.9640 13.16594919242928
ONEWEB-0254             
1 48972U 21060F   26193.54117104  .00000111  00000+0  25752-3 0  9999
2 48972  87.9083 223.7375 0002263  98.0458 262.0930 13.16593690242927
ONEWEB-0255             
1 48973U 21060G   26193.57916793 -.00000029  00000+0 -10842-3 0  9998
2 48973  87.9081 223.7362 0002156  99.0796 261.0578 13.16593838243000
ONEWEB-0256             
1 48974U 21060H   26193.52927529  .00000114  00000+0  26540-3 0  9998
2 48974  87.9073 223.7496 0001855  92.1773 267.9571 13.16592538242962
ONEWEB-0257             
1 48975U 21060J   26193.56175042  .00000063  00000+0  13136-3 0  9998
2 48975  87.9084 223.7308 0002042  99.2915 260.8447 13.16594160242925
ONEWEB-0258             
1 48976U 21060K   26194.01931727  .00000007  00000+0 -14262-4 0  9991
2 48976  87.9080 223.6522 0002115  91.6248 268.5126 13.16594103242998
ONEWEB-0259             
1 48977U 21060L   26194.01298404 -.00000011  00000+0 -61200-4 0  9990
2 48977  87.9082 223.6520 0002211  96.6490 263.4893 13.16593920243026
ONEWEB-0260             
1 48978U 21060M   26193.54827799  .00000073  00000+0  15758-3 0  9995
2 48978  87.9074 223.7449 0001666  93.4775 266.6547 13.16595657242943
ONEWEB-0261             
1 48979U 21060N   26193.51821609  .00000062  00000+0  12811-3 0  9992
2 48979  87.9073 223.7523 0002025 104.2075 255.9281 13.16593380242992
ONEWEB-0262             
1 48980U 21060P   26193.65041370  .00000051  00000+0  10098-3 0  9991
2 48980  87.9084 223.7116 0002373  98.6751 261.4649 13.16593755242971
ONEWEB-0263             
1 48981U 21060Q   26193.53008398  .00000106  00000+0  24401-3 0  9996
2 48981  87.9081 223.7478 0002131 104.0670 256.0698 13.16593735242921
ONEWEB-0264             
1 48982U 21060R   26193.56727461 -.00000147  00000+0 -41806-3 0  9994
2 48982  87.9075 223.7426 0001947  97.2070 262.9282 13.16592911242930
ONEWEB-0266             
1 48984U 21060T   26193.58865751  .00000103  00000+0  23518-3 0  9993
2 48984  87.9068 223.7313 0002102  92.9465 267.1906 13.16595342242923
ONEWEB-0267             
1 48985U 21060U   26193.97973540 -.00000010  00000+0 -59541-4 0  9998
2 48985  87.9081 223.6488 0001978 101.1559 258.9794 13.16593357242981
ONEWEB-0268             
1 48986U 21060V   26193.64408118 -.00000085  00000+0 -25645-3 0  9996
2 48986  87.9085 223.7237 0002035  92.8467 267.2897 13.16593120243209
ONEWEB-0269             
1 48987U 21060W   26193.62508171  .00000036  00000+0  59323-4 0  9990
2 48987  87.9075 223.7291 0001957  86.9410 273.1944 13.16593830242973
ONEWEB-0270             
1 48988U 21060X   26193.64249940  .00000006  00000+0 -18897-4 0  9998
2 48988  87.9086 223.7265 0002358 103.5357 256.6037 13.16593830243014
ONEWEB-0271             
1 48989U 21060Y   26194.00981848  .00000056  00000+0  11164-3 0  9993
2 48989  87.9079 223.6435 0002096 100.9674 259.1693 13.16594188243065
ONEWEB-0272             
1 48990U 21060Z   26193.57599837 -.00000008  00000+0 -54059-4 0  9999
2 48990  87.9082 223.7391 0001809  97.7675 262.3661 13.16595443242951
ONEWEB-0273             
1 48991U 21060AA  26193.52216632  .00000028  00000+0  39910-4 0  9993
2 48991  87.9078 223.7518 0002116  98.3617 261.7754 13.16593773242920
ONEWEB-0274             
1 48992U 21060AB  26193.54748947  .00000025  00000+0  30961-4 0  9999
2 48992  87.9073 223.7461 0001495 104.0757 256.0540 13.16595214242968
